GALAXY 8 (G-8)          
1 25086U 97078A   22181.02149560 -.00000264  00000+0  00000+0 0  9994
2 25086  13.0850  20.1480 0012483  45.5251 193.5689  0.99705736 89504
ARIANE 1 DEB            
1 25098U 79104D   22181.18155537  .00000665  00000+0  12906-2 0  9990
2 25098  17.5766 233.7644 5673028 322.5267   9.0543  4.34779282376277
IRIDIUM 45              
1 25104U 97082A   22181.80924031  .00001496  00000+0  11090-3 0  9992
2 25104  86.3813 193.8722 0201922 292.9149  65.0876 14.87381183289776
IRIDIUM 24              
1 25105U 97082B   22181.73725100  .00000166  00000+0  46124-4 0  9991
2 25105  86.3937 178.3532 0013415  55.4087 304.8376 14.40244343287336
INTELSAT 804 (IS-804)   
1 25110U 97083A   22181.88128796 -.00000207  00000+0  00000+0 0  9997
2 25110  11.6882  27.4727 0007667  45.8463 314.2513  1.00248600 89919
ORBCOMM FM08            
1 25112U 97084A   22181.91748471  .00000276  00000+0  13246-3 0  9997
2 25112  45.0152 132.4703 0007343 205.9701 154.0780 14.39705886285147
ORBCOMM FM10            
1 25113U 97084B   22181.83483611  .00000263  00000+0  12862-3 0  9990
2 25113  45.0162 134.4247 0004171 180.9224 179.1618 14.39696226460287
ORBCOMM FM11            
1 25114U 97084C   22181.87311588  .00000243  00000+0  12249-3 0  9995
2 25114  45.0147 133.8453 0004968 178.8690 181.2171 14.39612599285262
ORBCOMM FM12            
1 25115U 97084D   22182.18120419  .00000221  00000+0  11536-3 0  9996
2 25115  45.0157 132.0459 0003956 186.6959 173.3838 14.39635027285344
ORBCOMM FM09            
1 25116U 97084E   22181.55758710  .00000268  00000+0  13022-3 0  9991
2 25116  45.0161 135.5646 0004616 158.9708 201.1331 14.39620135285223
ORBCOMM FM05            
1 25117U 97084F   22181.85322180  .00000233  00000+0  11873-3 0  9997
2 25117  45.0159 134.0798 0002681 227.3713 132.6910 14.39847099284354
ORBCOMM FM06            
1 25118U 97084G   22181.91956682  .00000244  00000+0  12247-3 0  9993
2 25118  45.0156 133.5339 0002414 247.7943 153.6267 14.39693905285288
ORBCOMM FM07            
1 25119U 97084H   22181.25756371  .00000248  00000+0  12400-3 0  9999
2 25119  45.0146 137.0190 0002520 202.3538 157.7202 14.39673939285185
HGS 1 (ASIASAT 3)       
1 25126U 97086A   22181.98461385 -.00000290  00000+0  00000+0 0  9994
2 25126  10.8058  43.5694 0054564  16.2189 163.4697  1.00327983 90639
SKYNET 4D               
1 25134U 98002A   22181.37202065 -.00000256  00000+0  00000+0 0  9995
2 25134  11.8510  19.1335 0007590  94.5632 275.1781  0.99156707 89029
DELTA 2 R/B(1)          
1 25135U 98002B   22181.59070727  .00000131  00000+0  18500-4 0  9998
2 25135  26.8831 134.2143 0356146  20.7260 138.7878 13.62425612219271
DELTA 2 R/B(2)          
1 25136U 98002C   22182.15107892  .00000016  00000+0  00000+0 0  9999
2 25136  22.9292 170.3134 6998886 267.6942 280.2563  2.19861667196631
DELTA 2 DEB             
1 25138U 98002E   22181.58222829  .00000171  00000+0  38124-4 0  9990
2 25138  26.8781 143.8063 0331646 252.0163 275.1444 13.69370624223162
ATLAS 2A R/B            
1 25149U 98005B   22180.88983397  .00000495  00000+0  00000+0 0  9997
2 25149  62.4192  23.0888 7269343 262.9287  17.2597  2.06863899 22024
BRASILSAT B3            
1 25152U 98006A   22182.05378840 -.00000179  00000+0  00000+0 0  9994
2 25152   7.7006  59.2344 0007064  32.0737 143.7815  0.99217214 89262
INMARSAT 3-F5           
1 25153U 98006B   22181.43244859 -.00000286  00000+0  00000+0 0  9997
2 25153   6.4274  65.7446 0004016  27.1592 287.1822  1.00277340 89371
TRANSIT 5B-2 DEB        
1 25156U 63049N   22182.16853731  .00000383  00000+0  54381-3 0  9997
2 25156  89.9103  84.7231 0040802 297.6880 218.2959 13.54684658203371
GFO                     
1 25157U 98007A   22181.89095715  .00000904  00000+0  64622-4 0  9998
2 25157 108.0399 306.5020 0160602   5.5197 354.7705 15.04245353305528
ORBCOMM FM03            
1 25158U 98007B   22181.67642724  .00000174  00000+0  11677-3 0  9993
2 25158 107.9882  80.0709 0050007 332.1173  27.7287 14.30075645269098
ORBCOMM FM04            
1 25159U 98007C   22182.00713487  .00000202  00000+0  12692-3 0  9997
2 25159 107.9861  83.1928 0045497 330.0058  29.8475 14.30361224269407
CELESTIS-02 & TAURUS R/B
1 25160U 98007D   22181.91776394 -.00000063  00000+0  29449-4 0  9999
2 25160 107.9832 293.8558 0060842  87.1495  17.0340 14.21631039264771
TAURUS DEB              
1 25161U 98007E   22181.80149187  .00000038  00000+0  69707-4 0  9994
2 25161 108.0091  11.5073 0059758  25.7665 344.2765 14.25720549267014
GLOBALSTAR M001         
1 25162U 98008A   22181.92984253 -.00000085  00000+0  89093-4 0  9993
2 25162  52.0020 243.0097 0001820 143.8513  26.7460 12.38145630109646
GLOBALSTAR M004         
1 25163U 98008B   22181.83951079 -.00000093  00000+0  60181-4 0  9990
2 25163  51.9991 115.8948 0003693  46.3148 348.4104 12.63313040124886
GLOBALSTAR M002         
1 25164U 98008C   22181.89606033 -.00000069  00000+0  14971-3 0  9992
2 25164  52.0027  73.8038 0001662 352.0819   7.9975 11.61482788 58307
GLOBALSTAR M003         
1 25165U 98008D   22181.77260319 -.00000114  00000+0 -26130-3 0  9995
2 25165  51.9568 287.0355 0007255 269.4936 257.9175 12.11849222101979
