OBJECT_NAME,OBJECT_ID,EPOCH,MEAN_MOTION,ECCENTRICITY,INCLINATION,RA_OF_ASC_NODE,ARG_OF_PERICENTER,MEAN_ANOMALY,EPHEMERIS_TYPE,CLASSIFICATION_TYPE,NORAD_CAT_ID,ELEMENT_SET_NO,REV_AT_EPOCH,BSTAR,MEAN_MOTION_DOT,MEAN_MOTION_DDOT
GALAXY 8 (G-8),1997-078A,2022-06-30T00:30:57.219840,0.99705736,.0012483,13.0850,20.1480,45.5251,193.5689,0,U,25086,999,8950,0,-.264E-5,0
ARIANE 1 DEB,1979-104D,2022-06-30T04:21:26.383968,4.34779282,.5673028,17.5766,233.7644,322.5267,9.0543,0,U,25098,999,37627,.12906E-2,.665E-5,0
IRIDIUM 45,1997-082A,2022-06-30T19:25:18.362784,14.87381183,.0201922,86.3813,193.8722,292.9149,65.0876,0,U,25104,999,28977,.1109E-3,.1496E-4,0
IRIDIUM 24,1997-082B,2022-06-30T17:41:38.486400,14.40244343,.0013415,86.3937,178.3532,55.4087,304.8376,0,U,25105,999,28733,.46124E-4,.166E-5,0
INTELSAT 804 (IS-804),1997-083A,2022-06-30T21:09:03.279744,1.00248600,.0007667,11.6882,27.4727,45.8463,314.2513,0,U,25110,999,8991,0,-.207E-5,0
ORBCOMM FM08,1997-084A,2022-06-30T22:01:10.678944,14.39705886,.0007343,45.0152,132.4703,205.9701,154.0780,0,U,25112,999,28514,.13246E-3,.276E-5,0
ORBCOMM FM10,1997-084B,2022-06-30T20:02:09.839904,14.39696226,.0004171,45.0162,134.4247,180.9224,179.1618,0,U,25113,999,46028,.12862E-3,.263E-5,0
ORBCOMM FM11,1997-084C,2022-06-30T20:57:17.212032,14.39612599,.0004968,45.0147,133.8453,178.8690,181.2171,0,U,25114,999,28526,.12249E-3,.243E-5,0
ORBCOMM FM12,1997-084D,2022-07-01T04:20:56.042016,14.39635027,.0003956,45.0157,132.0459,186.6959,173.3838,0,U,25115,999,28534,.11536E-3,.221E-5,0
ORBCOMM FM09,1997-084E,2022-06-30T13:22:55.525440,14.39620135,.0004616,45.0161,135.5646,158.9708,201.1331,0,U,25116,999,28522,.13022E-3,.268E-5,0
ORBCOMM FM05,1997-084F,2022-06-30T20:28:38.363520,14.39847099,.0002681,45.0159,134.0798,227.3713,132.6910,0,U,25117,999,28435,.11873E-3,.233E-5,0
ORBCOMM FM06,1997-084G,2022-06-30T22:04:10.573248,14.39693905,.0002414,45.0156,133.5339,247.7943,153.6267,0,U,25118,999,28528,.12247E-3,.244E-5,0
ORBCOMM FM07,1997-084H,2022-06-30T06:10:53.504544,14.39673939,.000252,45.0146,137.0190,202.3538,157.7202,0,U,25119,999,28518,.124E-3,.248E-5,0
HGS 1 (ASIASAT 3),1997-086A,2022-06-30T23:37:50.636640,1.00327983,.0054564,10.8058,43.5694,16.2189,163.4697,0,U,25126,999,9063,0,-.29E-5,0
SKYNET 4D,1998-002A,2022-06-30T08:55:42.584160,0.99156707,.000759,11.8510,19.1335,94.5632,275.1781,0,U,25134,999,8902,0,-.256E-5,0
DELTA 2 R/B(1),1998-002B,2022-06-30T14:10:37.108128,13.62425612,.0356146,26.8831,134.2143,20.7260,138.7878,0,U,25135,999,21927,.185E-4,.131E-5,0
DELTA 2 R/B(2),1998-002C,2022-07-01T03:37:33.218688,2.19861667,.6998886,22.9292,170.3134,267.6942,280.2563,0,U,25136,999,19663,0,.16E-6,0
DELTA 2 DEB,1998-002E,2022-06-30T13:58:24.524256,13.69370624,.0331646,26.8781,143.8063,252.0163,275.1444,0,U,25138,999,22316,.38124E-4,.171E-5,0
ATLAS 2A R/B,1998-005B,2022-06-29T21:21:21.655008,2.06863899,.7269343,62.4192,23.0888,262.9287,17.2597,0,U,25149,999,2202,0,.495E-5,0
BRASILSAT B3,1998-006A,2022-07-01T01:17:27.317760,0.99217214,.0007064,7.7006,59.2344,32.0737,143.7815,0,U,25152,999,8926,0,-.179E-5,0
INMARSAT 3-F5,1998-006B,2022-06-30T10:22:43.558176,1.00277340,.0004016,6.4274,65.7446,27.1592,287.1822,0,U,25153,999,8937,0,-.286E-5,0
TRANSIT 5B-2 DEB,1963-049N,2022-07-01T04:02:41.623584,13.54684658,.0040802,89.9103,84.7231,297.6880,218.2959,0,U,25156,999,20337,.54381E-3,.383E-5,0
GFO,1998-007A,2022-06-30T21:22:58.697760,15.04245353,.0160602,108.0399,306.5020,5.5197,354.7705,0,U,25157,999,30552,.64622E-4,.904E-5,0
ORBCOMM FM03,1998-007B,2022-06-30T16:14:03.313536,14.30075645,.0050007,107.9882,80.0709,332.1173,27.7287,0,U,25158,999,26909,.11677E-3,.174E-5,0
ORBCOMM FM04,1998-007C,2022-07-01T00:10:16.452768,14.30361224,.0045497,107.9861,83.1928,330.0058,29.8475,0,U,25159,999,26940,.12692E-3,.202E-5,0
CELESTIS-02 & TAURUS R/B,1998-007D,2022-06-30T22:01:34.804416,14.21631039,.0060842,107.9832,293.8558,87.1495,17.0340,0,U,25160,999,26477,.29449E-4,-.63E-6,0
TAURUS DEB,1998-007E,2022-06-30T19:14:08.897568,14.25720549,.0059758,108.0091,11.5073,25.7665,344.2765,0,U,25161,999,26701,.69707E-4,.38E-6,0
GLOBALSTAR M001,1998-008A,2022-06-30T22:18:58.394592,12.38145630,.000182,52.0020,243.0097,143.8513,26.7460,0,U,25162,999,10964,.89093E-4,-.85E-6,0
GLOBALSTAR M004,1998-008B,2022-06-30T20:08:53.732256,12.63313040,.0003693,51.9991,115.8948,46.3148,348.4104,0,U,25163,999,12488,.60181E-4,-.93E-6,0
GLOBALSTAR M002,1998-008C,2022-06-30T21:30:19.612512,11.61482788,.0001662,52.0027,73.8038,352.0819,7.9975,0,U,25164,999,5830,.14971E-3,-.69E-6,0
GLOBALSTAR M003,1998-008D,2022-06-30T18:32:32.915616,12.11849222,.0007255,51.9568,287.0355,269.4936,257.9175,0,U,25165,999,10197,-.2613E-3,-.114E-5,0
